SWAS                    
1 25560U 98071A   26068.53487068  .00004636  00000+0  29986-3 0  9991
2 25560  69.8952 124.3662 0004099  14.3215 345.8065 15.08888192482231
STARLINK-3129           
1 49453U 21104AX  26068.68069416 -.00000787  00000+0 -31337-4 0  9999
2 49453  53.2176 219.2491 0001133  81.7118 278.4002 15.08844076238776
